GOES 1 (SMS-C) [-]      
1 08366U 75100A   22116.53669126 -.00000228  00000+0  00000+0 0  9997
2 08366   8.4038 296.4140 0000217  96.6012 286.9818  1.00303548169909
GOES 2 [-]              
1 10061U 77048A   22116.67098625  .00000059  00000+0  00000+0 0  9991
2 10061   9.9681 307.6576 0012819  28.9990 345.6431  0.99395980 31243
GOES 3 [-]              
1 10953U 78062A   22115.99931536 -.00000133  00000+0  00000+0 0  9993
2 10953  10.2899 312.1052 0003428 111.0604 246.6012  0.99358168113491
GOES 4 [-]              
1 11964U 80074A   22116.80643603 -.00000138  00000+0  00000+0 0  9993
2 11964  11.2404 315.9106 0034705  71.9213 302.9663  0.99233379112437
GOES 5 [-]              
1 12472U 81049A   22116.56195774 -.00000185  00000+0  00000+0 0  9997
2 12472  12.0472 327.1938 0001977  86.5650 266.8623  1.00338203107675
GOES 6 [-]              
1 14050U 83041A   22116.13044905 -.00000213  00000+0  00000+0 0  9999
2 14050  12.5893 332.4732 0004403 113.2716  84.3061  1.00320482200842
GOES 7 [-]              
1 17561U 87022A   22116.97616250 -.00000311  00000+0  00000+0 0  9991
2 17561  14.2863 348.9787 0007252  53.9968 119.9410  0.99903646111877
GOES 8 [-]              
1 23051U 94022A   22116.29903648 -.00000010  00000+0  00000+0 0  9991
2 23051  13.1342  24.5662 0008729  21.9120 174.3997  0.98903225109168
GOES 9 [-]              
1 23581U 95025A   22116.54587124 -.00000189  00000+0  00000+0 0  9995
2 23581  12.6263  24.8556 0007340  69.8034 139.3241  0.98802255 97812
GOES 10 [-]             
1 24786U 97019A   22116.58977193 -.00000302  00000+0  00000+0 0  9998
2 24786  11.3641  30.9811 0024101 199.9454 350.8677  0.99127412 91074
GOES 11 [-]             
1 26352U 00022A   22115.98780257  .00000016  00000+0  00000+0 0  9994
2 26352   8.5749  59.7285 0002190 334.0330 214.6075  0.99041921 37489
GOES 12 [-]             
1 26871U 01031A   22116.33639566 -.00000170  00000+0  00000+0 0  9999
2 26871   9.4266  48.5172 0009313 332.5622 247.1078  0.99136691 75767
EWS-G1 (GOES 13) [+]    
1 29155U 06018A   22116.85604904  .00000021  00000+0  00000+0 0  9996
2 29155   0.4694  96.6713 0001250 109.8243  18.1348  1.00273941 28219
GOES 14 [B]             
1 35491U 09033A   22116.60518206 -.00000107  00000+0  00000+0 0  9994
2 35491   0.1987  92.9643 0011379 125.6520 109.3276  1.00271490 46949
GOES 15 [B]             
1 36411U 10008A   22116.67220730  .00000040  00000+0  00000+0 0  9995
2 36411   0.1715 104.6838 0002379 340.7362 242.9662  1.00276797 44500
GOES 16 [+]             
1 41866U 16071A   22116.88313140 -.00000262  00000+0  00000+0 0  9999
2 41866   0.0425 278.4096 0000800 158.7772  20.3845  1.00273278 19955
GOES 17 [+]             
1 43226U 18022A   22116.67037573  .00000083  00000+0  00000+0 0  9999
2 43226   0.0344 279.3624 0000272 103.5629 295.8540  1.00271594 15255
GOES 18 [+]             
1 51850U 22021A   22116.33203437 -.00000197  00000+0  00000+0 0  9999
2 51850   0.0441  72.7819 0001059  48.3061 123.2438  1.00267507   428
